{"type": "FeatureCollection", "features": [ {"type": "Feature", "properties": {"norad_id": 54234, "name": "NOAA 21 (JPSS-2)", "group": "weather", "lat": -79.07687192426715, "lon": 55.61754464196684, "alt_km": 835.0705871987411, "timestamp": "2025-12-18T07:01:54.229756+00:00", "meta": {"OBJECT_NAME": "NOAA 21 (JPSS-2)", "OBJECT_ID": "2022-150A", "EPOCH": "2025-12-17T19:38:40.048512", "MEAN_MOTION": 14.19525664, "ECCENTRICITY": 0.00020066, "INCLINATION": 98.7467, "RA_OF_ASC_NODE": 288.0635, "ARG_OF_PERICENTER": 28.0934, "MEAN_ANOMALY": 332.035, "EPHEMERIS_TYPE": 0, "CLASSIFICATION_TYPE": "U", "NORAD_CAT_ID": 54234, "ELEMENT_SET_NO": 999, "REV_AT_EPOCH": 16081, "BSTAR": 4.2797059e-05, "MEAN_MOTION_DOT": 4.6e-07, "MEAN_MOTION_DDOT": 0}, "tle": {"line1": "1 54234U 22150A   25351.81851908  .00000046  00000+0  42797-4 0  9996", "line2": "2 54234  98.7467 288.0635 0002006  28.0934 332.0350 14.19525664160812"}}, "geometry": {"type": "Point", "coordinates": [55.61754464196684, -79.07687192426715]}}, {"type": "Feature", "properties": {"norad_id": 54743, "name": "METEOSAT-12 (MTG-I1)", "group": "weather", "lat": 0.1340918616015227, "lon": -167.68985502156875, "alt_km": 35784.47045832804, "timestamp": "2025-12-18T07:01:54.229782+00:00", "meta": {"OBJECT_NAME": "METEOSAT-12 (MTG-I1)", "OBJECT_ID": "2022-170C", "EPOCH": "2025-12-17T18:27:38.045376", "MEAN_MOTION": 1.00270194, "ECCENTRICITY": 0.00015074, "INCLINATION": 0.6921, "RA_OF_ASC_NODE": 24.4378, "ARG_OF_PERICENTER": 239.4583, "MEAN_ANOMALY": 99.3598, "EPHEMERIS_TYPE": 0, "CLASSIFICATION_TYPE": "U", "NORAD_CAT_ID": 54743, "ELEMENT_SET_NO": 999, "REV_AT_EPOCH": 1115, "BSTAR": 0, "MEAN_MOTION_DOT": 1.7e-07, "MEAN_MOTION_DDOT": 0}, "tle": {"line1": "1 54743U 22170C   25351.76919034  .00000017  00000+0  00000+0 0  9996", "line2": "2 54743   0.6921  24.4378 0001507 239.4583  99.3598  1.00270194 11153"}}, "geometry": {"type": "Point", "coordinates": [-167.68985502156875, 0.1340918616015227]}}, {"type": "Feature", "properties": {"norad_id": 55973, "name": "TIANMU-1 03", "group": "weather", "lat": 81.55914879565626, "lon": 37.84901703320643, "alt_km": 433.5862712644357, "timestamp": "2025-12-18T07:01:54.229802+00:00", "meta": {"OBJECT_NAME": "TIANMU-1 03", "OBJECT_ID": "2023-039A", "EPOCH": "2025-12-17T22:50:04.272576", "MEAN_MOTION": 15.41073492, "ECCENTRICITY": 0.00041956, "INCLINATION": 97.5101, "RA_OF_ASC_NODE": 154.7487, "ARG_OF_PERICENTER": 46.3803, "MEAN_ANOMALY": 313.7791, "EPHEMERIS_TYPE": 0, "CLASSIFICATION_TYPE": "U", "NORAD_CAT_ID": 55973, "ELEMENT_SET_NO": 999, "REV_AT_EPOCH": 15286, "BSTAR": 0.00030569043, "MEAN_MOTION_DOT": 0.00012556, "MEAN_MOTION_DDOT": 0}, "tle": {"line1": "1 55973U 23039A   25351.95143834  .00012556  00000+0  30569-3 0  9993", "line2": "2 55973  97.5101 154.7487 0004195  46.3803 313.7791 15.41073492152862"}}, "geometry": {"type": "Point", "coordinates": [37.84901703320643, 81.55914879565626]}}, {"type": "Feature", "properties": {"norad_id": 55974, "name": "TIANMU-1 04", "group": "weather", "lat": -34.30558548880138, "lon": -30.87107056439015, "alt_km": 451.4880782220125, "timestamp": "2025-12-18T07:01:54.229830+00:00", "meta": {"OBJECT_NAME": "TIANMU-1 04", "OBJECT_ID": "2023-039B", "EPOCH": "2025-12-17T23:52:18.821856", "MEAN_MOTION": 15.41415019, "ECCENTRICITY": 0.00048073, "INCLINATION": 97.5033, "RA_OF_ASC_NODE": 153.982, "ARG_OF_PERICENTER": 40.2067, "MEAN_ANOMALY": 319.9535, "EPHEMERIS_TYPE": 0, "CLASSIFICATION_TYPE": "U", "NORAD_CAT_ID": 55974, "ELEMENT_SET_NO": 999, "REV_AT_EPOCH": 15287, "BSTAR": 0.0003218097, "MEAN_MOTION_DOT": 0.00013377, "MEAN_MOTION_DDOT": 0}, "tle": {"line1": "1 55974U 23039B   25351.99466229  .00013377  00000+0  32181-3 0  9998", "line2": "2 55974  97.5033 153.9820 0004807  40.2067 319.9535 15.41415019152874"}}, "geometry": {"type": "Point", "coordinates": [-30.87107056439015, -34.30558548880138]}}, {"type": "Feature", "properties": {"norad_id": 55975, "name": "TIANMU-1 05", "group": "weather", "lat": -58.090666516454476, "lon": -37.447106323488555, "alt_km": 453.05828529690825, "timestamp": "2025-12-18T07:01:54.229848+00:00", "meta": {"OBJECT_NAME": "TIANMU-1 05", "OBJECT_ID": "2023-039C", "EPOCH": "2025-12-17T23:45:53.966016", "MEAN_MOTION": 15.41031519, "ECCENTRICITY": 0.00042169, "INCLINATION": 97.5079, "RA_OF_ASC_NODE": 154.4701, "ARG_OF_PERICENTER": 63.8753, "MEAN_ANOMALY": 296.2926, "EPHEMERIS_TYPE": 0, "CLASSIFICATION_TYPE": "U", "NORAD_CAT_ID": 55975, "ELEMENT_SET_NO": 999, "REV_AT_EPOCH": 15285, "BSTAR": 0.00030153658, "MEAN_MOTION_DOT": 0.00012367, "MEAN_MOTION_DDOT": 0}, "tle": {"line1": "1 55975U 23039C   25351.99020794  .00012367  00000+0  30154-3 0  9998", "line2": "2 55975  97.5079 154.4701 0004216  63.8753 296.2926 15.41031519152854"}}, "geometry": {"type": "Point", "coordinates": [-37.447106323488555, -58.090666516454476]}}, {"type": "Feature", "properties": {"norad_id": 55976, "name": "TIANMU-1 06", "group": "weather", "lat": -23.444716946707135, "lon": -28.028481120038514, "alt_km": 449.88790299461925, "timestamp": "2025-12-18T07:01:54.229864+00:00", "meta": {"OBJECT_NAME": "TIANMU-1 06", "OBJECT_ID": "2023-039D", "EPOCH": "2025-12-17T23:55:11.481888", "MEAN_MOTION": 15.414667, "ECCENTRICITY": 0.00044907, "INCLINATION": 97.509, "RA_OF_ASC_NODE": 154.9461, "ARG_OF_PERICENTER": 58.3216, "MEAN_ANOMALY": 301.8468, "EPHEMERIS_TYPE": 0, "CLASSIFICATION_TYPE": "U", "NORAD_CAT_ID": 55976, "ELEMENT_SET_NO": 999, "REV_AT_EPOCH": 15287, "BSTAR": 0.0003182983, "MEAN_MOTION_DOT": 0.00013252, "MEAN_MOTION_DDOT": 0}, "tle": {"line1": "1 55976U 23039D   25351.99666067  .00013252  00000+0  31830-3 0  9994", "line2": "2 55976  97.5090 154.9461 0004490  58.3216 301.8468 15.41466700152873"}}, "geometry": {"type": "Point", "coordinates": [-28.028481120038514, -23.444716946707135]}}, {"type": "Feature", "properties": {"norad_id": 56232, "name": "FENGYUN 3G", "group": "weather", "lat": -25.90468697508397, "lon": 42.86569316988526, "alt_km": 403.5935863681307, "timestamp": "2025-12-18T07:01:54.229881+00:00", "meta": {"OBJECT_NAME": "FENGYUN 3G", "OBJECT_ID": "2023-055A", "EPOCH": "2025-12-17T22:23:44.860704", "MEAN_MOTION": 15.53949654, "ECCENTRICITY": 0.00093217, "INCLINATION": 49.9923, "RA_OF_ASC_NODE": 200.6494, "ARG_OF_PERICENTER": 172.095, "MEAN_ANOMALY": 188.0167, "EPHEMERIS_TYPE": 0, "CLASSIFICATION_TYPE": "U", "NORAD_CAT_ID": 56232, "ELEMENT_SET_NO": 999, "REV_AT_EPOCH": 15183, "BSTAR": 0.00039380189, "MEAN_MOTION_DOT": 0.00025587, "MEAN_MOTION_DDOT": 0}, "tle": {"line1": "1 56232U 23055A   25351.93315811  .00025587  00000+0  39380-3 0  9992", "line2": "2 56232  49.9923 200.6494 0009321 172.0950 188.0167 15.53949654151830"}}, "geometry": {"type": "Point", "coordinates": [42.86569316988526, -25.90468697508397]}}, {"type": "Feature", "properties": {"norad_id": 57166, "name": "METEOR-M2 3", "group": "weather", "lat": -76.6716092640855, "lon": -174.17456520658703, "alt_km": 819.1969940921808, "timestamp": "2025-12-18T07:01:54.229897+00:00", "meta": {"OBJECT_NAME": "METEOR-M2 3", "OBJECT_ID": "2023-091A", "EPOCH": "2025-12-17T23:04:11.553312", "MEAN_MOTION": 14.24026644, "ECCENTRICITY": 0.00036083, "INCLINATION": 98.6373, "RA_OF_ASC_NODE": 45.4093, "ARG_OF_PERICENTER": 353.4262, "MEAN_ANOMALY": 6.6869, "EPHEMERIS_TYPE": 0, "CLASSIFICATION_TYPE": "U", "NORAD_CAT_ID": 57166, "ELEMENT_SET_NO": 999, "REV_AT_EPOCH": 12872, "BSTAR": 2.1086908e-05, "MEAN_MOTION_DOT": 5e-08, "MEAN_MOTION_DDOT": 0}, "tle": {"line1": "1 57166U 23091A   25351.96124483  .00000005  00000+0  21087-4 0  9999", "line2": "2 57166  98.6373  45.4093 0003608 353.4262   6.6869 14.24026644128728"}}, "geometry": {"type": "Point", "coordinates": [-174.17456520658703, -76.6716092640855]}}, {"type": "Feature", "properties": {"norad_id": 57399, "name": "TIANMU-1 07", "group": "weather", "lat": 3.980076006553825, "lon": 41.51058598058872, "alt_km": 482.23820545792387, "timestamp": "2025-12-18T07:01:54.229914+00:00", "meta": {"OBJECT_NAME": "TIANMU-1 07", "OBJECT_ID": "2023-101A", "EPOCH": "2025-12-17T23:09:23.446944", "MEAN_MOTION": 15.28145343, "ECCENTRICITY": 0.00054237, "INCLINATION": 97.2875, "RA_OF_ASC_NODE": 41.6998, "ARG_OF_PERICENTER": 68.5507, "MEAN_ANOMALY": 291.6311, "EPHEMERIS_TYPE": 0, "CLASSIFICATION_TYPE": "U", "NORAD_CAT_ID": 57399, "ELEMENT_SET_NO": 999, "REV_AT_EPOCH": 13395, "BSTAR": 0.00022491, "MEAN_MOTION_DOT": 6.1e-05, "MEAN_MOTION_DDOT": 0}, "tle": {"line1": "1 57399U 23101A   25351.96485471  .00006100  00000+0  22491-3 0  9997", "line2": "2 57399  97.2875  41.6998 0005423  68.5507 291.6311 15.28145343133955"}}, "geometry": {"type": "Point", "coordinates": [41.51058598058872, 3.980076006553825]}}, {"type": "Feature", "properties": {"norad_id": 57400, "name": "TIANMU-1 08", "group": "weather", "lat": -5.740985992135645, "lon": -138.91919275335653, "alt_km": 487.55327628096984, "timestamp": "2025-12-18T07:01:54.229929+00:00", "meta": {"OBJECT_NAME": "TIANMU-1 08", "OBJECT_ID": "2023-101B", "EPOCH": "2025-12-17T22:21:52.671168", "MEAN_MOTION": 15.28127718, "ECCENTRICITY": 0.00073452, "INCLINATION": 97.2863, "RA_OF_ASC_NODE": 41.4647, "ARG_OF_PERICENTER": 69.303, "MEAN_ANOMALY": 290.8997, "EPHEMERIS_TYPE": 0, "CLASSIFICATION_TYPE": "U", "NORAD_CAT_ID": 57400, "ELEMENT_SET_NO": 999, "REV_AT_EPOCH": 13394, "BSTAR": 0.0002148318, "MEAN_MOTION_DOT": 5.822e-05, "MEAN_MOTION_DDOT": 0}, "tle": {"line1": "1 57400U 23101B   25351.93185962  .00005822  00000+0  21483-3 0  9999", "line2": "2 57400  97.2863  41.4647 0007345  69.3030 290.8997 15.28127718133945"}}, "geometry": {"type": "Point", "coordinates": [-138.91919275335653, -5.740985992135645]}}]}